FENGYUN 1C DEB          
1 31779U 99025CGE 17346.43789020  .00000244  00000-0  78800-4 0  9993
2 31779  99.3717 336.8723 0232474  38.7787 322.9826 14.35015584551334
